{
  "type": "FeatureCollection",
  "features": [
    {
      "type": "Feature",
      "properties": {
        "norad_id": 29975,
        "name": "FENGYUN 1C DEB",
        "group": "fengyun-1c-debris",
        "lat": 59.3848307688296,
        "lon": -120.97043659071028,
        "alt_km": 962.5676534675895,
        "timestamp": "2025-12-27T13:34:49.568219+00:00",
        "meta_object_name": "FENGYUN 1C DEB",
        "meta_object_id": "1999-025KZ",
        "meta_epoch": "2025-12-27T02:48:44.512704",
        "meta_mean_motion": 13.98030912,
        "meta_eccentricity": 0.01130315,
        "meta_inclination": 99.3376,
        "meta_ra_of_asc_node": 42.4299,
        "meta_arg_of_pericenter": 334.6617,
        "meta_mean_anomaly": 46.9488,
        "meta_ephemeris_type": 0,
        "meta_classification_type": "U",
        "meta_norad_cat_id": 29975,
        "meta_element_set_no": 999,
        "meta_rev_at_epoch": 96638,
        "meta_bstar": 0.0002614874,
        "meta_mean_motion_dot": 3.45e-06,
        "meta_mean_motion_ddot": 0,
        "tle_line1": "1 29975U 99025KZ  25361.11718186  .00000345  00000+0  26149-3 0  9993",
        "tle_line2": "2 29975  99.3376  42.4299 0113031 334.6617  46.9488 13.98030912966387"
      },
      "geometry": {
        "type": "Point",
        "coordinates": [
          -120.97043659071028,
          59.3848307688296
        ]
      }
    },
    {
      "type": "Feature",
      "properties": {
        "norad_id": 29976,
        "name": "FENGYUN 1C DEB",
        "group": "fengyun-1c-debris",
        "lat": -56.63143501644345,
        "lon": 12.273346959124735,
        "alt_km": 949.2368538369055,
        "timestamp": "2025-12-27T13:34:49.568228+00:00",
        "meta_object_name": "FENGYUN 1C DEB",
        "meta_object_id": "1999-025LA",
        "meta_epoch": "2025-12-27T00:28:36.902784",
        "meta_mean_motion": 13.98130901,
        "meta_eccentricity": 0.02676437,
        "meta_inclination": 98.9203,
        "meta_ra_of_asc_node": 357.9455,
        "meta_arg_of_pericenter": 199.9374,
        "meta_mean_anomaly": 232.8687,
        "meta_ephemeris_type": 0,
        "meta_classification_type": "U",
        "meta_norad_cat_id": 29976,
        "meta_element_set_no": 999,
        "meta_rev_at_epoch": 96536,
        "meta_bstar": 0.00045228853,
        "meta_mean_motion_dot": 8.3e-06,
        "meta_mean_motion_ddot": 0,
        "tle_line1": "1 29976U 99025LA  25361.01987156  .00000830  00000+0  45229-3 0  9997",
        "tle_line2": "2 29976  98.9203 357.9455 0267643 199.9374 232.8687 13.98130901965364"
      },
      "geometry": {
        "type": "Point",
        "coordinates": [
          12.273346959124735,
          -56.63143501644345
        ]
      }
    },
    {
      "type": "Feature",
      "properties": {
        "norad_id": 29977,
        "name": "FENGYUN 1C DEB",
        "group": "fengyun-1c-debris",
        "lat": -62.92581602247646,
        "lon": 25.72545379419822,
        "alt_km": 801.6640606360315,
        "timestamp": "2025-12-27T13:34:49.568239+00:00",
        "meta_object_name": "FENGYUN 1C DEB",
        "meta_object_id": "1999-025LB",
        "meta_epoch": "2025-12-15T02:05:24.079200",
        "meta_mean_motion": 14.0509794,
        "meta_eccentricity": 0.0128352,
        "meta_inclination": 98.3968,
        "meta_ra_of_asc_node": 210.9629,
        "meta_arg_of_pericenter": 250.2626,
        "meta_mean_anomaly": 265.3537,
        "meta_ephemeris_type": 0,
        "meta_classification_type": "U",
        "meta_norad_cat_id": 29977,
        "meta_element_set_no": 999,
        "meta_rev_at_epoch": 96393,
        "meta_bstar": 0.001211704,
        "meta_mean_motion_dot": 2.064e-05,
        "meta_mean_motion_ddot": 0,
        "tle_line1": "1 29977U 99025LB  25349.08708425  .00002064  00000+0  12117-2 0  9991",
        "tle_line2": "2 29977  98.3968 210.9629 0128352 250.2626 265.3537 14.05097940963932"
      },
      "geometry": {
        "type": "Point",
        "coordinates": [
          25.72545379419822,
          -62.92581602247646
        ]
      }
    },
    {
      "type": "Feature",
      "properties": {
        "norad_id": 29978,
        "name": "FENGYUN 1C DEB",
        "group": "fengyun-1c-debris",
        "lat": -16.783946473630156,
        "lon": -130.98928088983305,
        "alt_km": 968.0809718537839,
        "timestamp": "2025-12-27T13:34:49.568248+00:00",
        "meta_object_name": "FENGYUN 1C DEB",
        "meta_object_id": "1999-025LC",
        "meta_epoch": "2025-12-27T02:34:27.014304",
        "meta_mean_motion": 13.95912943,
        "meta_eccentricity": 0.0076212,
        "meta_inclination": 99.0595,
        "meta_ra_of_asc_node": 51.318,
        "meta_arg_of_pericenter": 13.0774,
        "meta_mean_anomaly": 40.5768,
        "meta_ephemeris_type": 0,
        "meta_classification_type": "U",
        "meta_norad_cat_id": 29978,
        "meta_element_set_no": 999,
        "meta_rev_at_epoch": 96517,
        "meta_bstar": 5.4209888e-05,
        "meta_mean_motion_dot": 3.2e-07,
        "meta_mean_motion_ddot": 0,
        "tle_line1": "1 29978U 99025LC  25361.10725711  .00000032  00000+0  54210-4 0  9991",
        "tle_line2": "2 29978  99.0595  51.3180 0076212  13.0774  40.5768 13.95912943965176"
      },
      "geometry": {
        "type": "Point",
        "coordinates": [
          -130.98928088983305,
          -16.783946473630156
        ]
      }
    },
    {
      "type": "Feature",
      "properties": {
        "norad_id": 29979,
        "name": "FENGYUN 1C DEB",
        "group": "fengyun-1c-debris",
        "lat": 12.947472584876753,
        "lon": 22.174968699486637,
        "alt_km": 827.493736987135,
        "timestamp": "2025-12-27T13:34:49.568259+00:00",
        "meta_object_name": "FENGYUN 1C DEB",
        "meta_object_id": "1999-025LD",
        "meta_epoch": "2025-12-27T02:02:41.917632",
        "meta_mean_motion": 14.25993412,
        "meta_eccentricity": 0.01081033,
        "meta_inclination": 98.3693,
        "meta_ra_of_asc_node": 23.6553,
        "meta_arg_of_pericenter": 121.0777,
        "meta_mean_anomaly": 307.3027,
        "meta_ephemeris_type": 0,
        "meta_classification_type": "U",
        "meta_norad_cat_id": 29979,
        "meta_element_set_no": 999,
        "meta_rev_at_epoch": 98278,
        "meta_bstar": 0.00044377721,
        "meta_mean_motion_dot": 1.086e-05,
        "meta_mean_motion_ddot": 0,
        "tle_line1": "1 29979U 99025LD  25361.08520738  .00001086  00000+0  44378-3 0  9994",
        "tle_line2": "2 29979  98.3693  23.6553 0108103 121.0777 307.3027 14.25993412982784"
      },
      "geometry": {
        "type": "Point",
        "coordinates": [
          22.174968699486637,
          12.947472584876753
        ]
      }
    },
    {
      "type": "Feature",
      "properties": {
        "norad_id": 29980,
        "name": "FENGYUN 1C DEB",
        "group": "fengyun-1c-debris",
        "lat": -22.880301552620956,
        "lon": 173.551725348393,
        "alt_km": 918.8758616536616,
        "timestamp": "2025-12-27T13:34:49.568268+00:00",
        "meta_object_name": "FENGYUN 1C DEB",
        "meta_object_id": "1999-025LE",
        "meta_epoch": "2025-12-27T00:37:46.374816",
        "meta_mean_motion": 14.0632489,
        "meta_eccentricity": 0.00873043,
        "meta_inclination": 98.552,
        "meta_ra_of_asc_node": 169.401,
        "meta_arg_of_pericenter": 207.0898,
        "meta_mean_anomaly": 278.6685,
        "meta_ephemeris_type": 0,
        "meta_classification_type": "U",
        "meta_norad_cat_id": 29980,
        "meta_element_set_no": 999,
        "meta_rev_at_epoch": 97193,
        "meta_bstar": 0.00012852071,
        "meta_mean_motion_dot": 1.78e-06,
        "meta_mean_motion_ddot": 0,
        "tle_line1": "1 29980U 99025LE  25361.02623119  .00000178  00000+0  12852-3 0  9990",
        "tle_line2": "2 29980  98.5520 169.4010 0087304 207.0898 278.6685 14.06324890971934"
      },
      "geometry": {
        "type": "Point",
        "coordinates": [
          173.551725348393,
          -22.880301552620956
        ]
      }
    },
    {
      "type": "Feature",
      "properties": {
        "norad_id": 29982,
        "name": "FENGYUN 1C DEB",
        "group": "fengyun-1c-debris",
        "lat": 14.42844573086462,
        "lon": -177.44040053332708,
        "alt_km": 728.1063717489096,
        "timestamp": "2025-12-27T13:34:49.568279+00:00",
        "meta_object_name": "FENGYUN 1C DEB",
        "meta_object_id": "1999-025LG",
        "meta_epoch": "2025-12-27T02:35:00.004416",
        "meta_mean_motion": 14.66991884,
        "meta_eccentricity": 0.0121595,
        "meta_inclination": 99.4017,
        "meta_ra_of_asc_node": 184.4779,
        "meta_arg_of_pericenter": 244.35,
        "meta_mean_anomaly": 230.8386,
        "meta_ephemeris_type": 0,
        "meta_classification_type": "U",
        "meta_norad_cat_id": 29982,
        "meta_element_set_no": 999,
        "meta_rev_at_epoch": 494,
        "meta_bstar": 0.00081458772,
        "meta_mean_motion_dot": 5.03e-05,
        "meta_mean_motion_ddot": 0,
        "tle_line1": "1 29982U 99025LG  25361.10763894  .00005030  00000+0  81459-3 0  9997",
        "tle_line2": "2 29982  99.4017 184.4779 0121595 244.3500 230.8386 14.66991884  4946"
      },
      "geometry": {
        "type": "Point",
        "coordinates": [
          -177.44040053332708,
          14.42844573086462
        ]
      }
    }
  ]
}